{
  "type": "FeatureCollection",
  "features": [
    {
      "type": "Feature",
      "properties": {
        "norad_id": 66431,
        "name": "STARLINK-35439",
        "group": "last-30-days",
        "lat": -12.845316340683429,
        "lon": -81.91572420703419,
        "alt_km": 414.5887697586968,
        "timestamp": "2025-12-06T11:28:09.784776+00:00",
        "meta_object_name": "STARLINK-35439",
        "meta_object_id": "2025-259K",
        "meta_epoch": "2025-12-05T14:31:07.155552",
        "meta_mean_motion": 15.50512695,
        "meta_eccentricity": 0.00028142,
        "meta_inclination": 43.0006,
        "meta_ra_of_asc_node": 89.0278,
        "meta_arg_of_pericenter": 146.507,
        "meta_mean_anomaly": 213.5968,
        "meta_ephemeris_type": 0,
        "meta_classification_type": "U",
        "meta_norad_cat_id": 66431,
        "meta_element_set_no": 999,
        "meta_rev_at_epoch": 506,
        "meta_bstar": 0.0020276861,
        "meta_mean_motion_dot": 0.00120179,
        "meta_mean_motion_ddot": 0,
        "tle_line1": "1 66431U 25259K   25339.60494393  .00120179  00000+0  20277-2 0  9992",
        "tle_line2": "2 66431  43.0006  89.0278 0002814 146.5070 213.5968 15.50512695  5061"
      },
      "geometry": {
        "type": "Point",
        "coordinates": [
          -81.91572420703419,
          -12.845316340683429
        ]
      }
    },
    {
      "type": "Feature",
      "properties": {
        "norad_id": 66432,
        "name": "STARLINK-35446",
        "group": "last-30-days",
        "lat": -14.569954194987211,
        "lon": -79.88978049774613,
        "alt_km": 414.9402643306339,
        "timestamp": "2025-12-06T11:28:09.784789+00:00",
        "meta_object_name": "STARLINK-35446",
        "meta_object_id": "2025-259L",
        "meta_epoch": "2025-12-05T14:30:36.021312",
        "meta_mean_motion": 15.50695663,
        "meta_eccentricity": 0.00016417,
        "meta_inclination": 43.0004,
        "meta_ra_of_asc_node": 89.0254,
        "meta_arg_of_pericenter": 264.562,
        "meta_mean_anomaly": 95.5053,
        "meta_ephemeris_type": 0,
        "meta_classification_type": "U",
        "meta_norad_cat_id": 66432,
        "meta_element_set_no": 999,
        "meta_rev_at_epoch": 506,
        "meta_bstar": 0.0026776493,
        "meta_mean_motion_dot": 0.00160676,
        "meta_mean_motion_ddot": 0,
        "tle_line1": "1 66432U 25259L   25339.60458358  .00160676  00000+0  26776-2 0  9990",
        "tle_line2": "2 66432  43.0004  89.0254 0001641 264.5620  95.5053 15.50695663  5063"
      },
      "geometry": {
        "type": "Point",
        "coordinates": [
          -79.88978049774613,
          -14.569954194987211
        ]
      }
    },
    {
      "type": "Feature",
      "properties": {
        "norad_id": 66433,
        "name": "STARLINK-35457",
        "group": "last-30-days",
        "lat": -15.637329428331045,
        "lon": -78.60845419634397,
        "alt_km": 415.30805945710836,
        "timestamp": "2025-12-06T11:28:09.784800+00:00",
        "meta_object_name": "STARLINK-35457",
        "meta_object_id": "2025-259M",
        "meta_epoch": "2025-12-05T14:30:06.205536",
        "meta_mean_motion": 15.50628115,
        "meta_eccentricity": 0.00014015,
        "meta_inclination": 43.0005,
        "meta_ra_of_asc_node": 89.0241,
        "meta_arg_of_pericenter": 255.623,
        "meta_mean_anomaly": 104.4475,
        "meta_ephemeris_type": 0,
        "meta_classification_type": "U",
        "meta_norad_cat_id": 66433,
        "meta_element_set_no": 999,
        "meta_rev_at_epoch": 506,
        "meta_bstar": 0.0021532261,
        "meta_mean_motion_dot": 0.00128293,
        "meta_mean_motion_ddot": 0,
        "tle_line1": "1 66433U 25259M   25339.60423849  .00128293  00000+0  21532-2 0  9992",
        "tle_line2": "2 66433  43.0005  89.0241 0001401 255.6230 104.4475 15.50628115  5069"
      },
      "geometry": {
        "type": "Point",
        "coordinates": [
          -78.60845419634397,
          -15.637329428331045
        ]
      }
    },
    {
      "type": "Feature",
      "properties": {
        "norad_id": 66434,
        "name": "STARLINK-35389",
        "group": "last-30-days",
        "lat": -16.86822344245166,
        "lon": -77.1038091491749,
        "alt_km": 415.5701841491109,
        "timestamp": "2025-12-06T11:28:09.784810+00:00",
        "meta_object_name": "STARLINK-35389",
        "meta_object_id": "2025-259N",
        "meta_epoch": "2025-12-05T14:29:36.661056",
        "meta_mean_motion": 15.50624895,
        "meta_eccentricity": 0.00013487,
        "meta_inclination": 43.0002,
        "meta_ra_of_asc_node": 89.0215,
        "meta_arg_of_pericenter": 266.394,
        "meta_mean_anomaly": 93.6766,
        "meta_ephemeris_type": 0,
        "meta_classification_type": "U",
        "meta_norad_cat_id": 66434,
        "meta_element_set_no": 999,
        "meta_rev_at_epoch": 506,
        "meta_bstar": 0.0021611829,
        "meta_mean_motion_dot": 0.00128761,
        "meta_mean_motion_ddot": 0,
        "tle_line1": "1 66434U 25259N   25339.60389654  .00128761  00000+0  21612-2 0  9997",
        "tle_line2": "2 66434  43.0002  89.0215 0001348 266.3940  93.6766 15.50624895  5068"
      },
      "geometry": {
        "type": "Point",
        "coordinates": [
          -77.1038091491749,
          -16.86822344245166
        ]
      }
    },
    {
      "type": "Feature",
      "properties": {
        "norad_id": 66435,
        "name": "STARLINK-35502",
        "group": "last-30-days",
        "lat": -18.12291565677116,
        "lon": -75.5351360419693,
        "alt_km": 415.6098522387683,
        "timestamp": "2025-12-06T11:28:09.784822+00:00",
        "meta_object_name": "STARLINK-35502",
        "meta_object_id": "2025-259P",
        "meta_epoch": "2025-12-05T14:29:06.916992",
        "meta_mean_motion": 15.50631994,
        "meta_eccentricity": 0.00012929,
        "meta_inclination": 43.0003,
        "meta_ra_of_asc_node": 89.0192,
        "meta_arg_of_pericenter": 264.3228,
        "meta_mean_anomaly": 95.7485,
        "meta_ephemeris_type": 0,
        "meta_classification_type": "U",
        "meta_norad_cat_id": 66435,
        "meta_element_set_no": 999,
        "meta_rev_at_epoch": 506,
        "meta_bstar": 0.0022128076,
        "meta_mean_motion_dot": 0.00131932,
        "meta_mean_motion_ddot": 0,
        "tle_line1": "1 66435U 25259P   25339.60355228  .00131932  00000+0  22128-2 0  9995",
        "tle_line2": "2 66435  43.0003  89.0192 0001292 264.3228  95.7485 15.50631994  5068"
      },
      "geometry": {
        "type": "Point",
        "coordinates": [
          -75.5351360419693,
          -18.12291565677116
        ]
      }
    },
    {
      "type": "Feature",
      "properties": {
        "norad_id": 66436,
        "name": "STARLINK-35501",
        "group": "last-30-days",
        "lat": -20.61067595589233,
        "lon": -72.30562172415539,
        "alt_km": 415.4130530703969,
        "timestamp": "2025-12-06T11:28:09.784833+00:00",
        "meta_object_name": "STARLINK-35501",
        "meta_object_id": "2025-259Q",
        "meta_epoch": "2025-12-05T14:28:07.939488",
        "meta_mean_motion": 15.50669165,
        "meta_eccentricity": 0.0001941,
        "meta_inclination": 43.001,
        "meta_ra_of_asc_node": 89.0132,
        "meta_arg_of_pericenter": 265.0678,
        "meta_mean_anomaly": 94.9961,
        "meta_ephemeris_type": 0,
        "meta_classification_type": "U",
        "meta_norad_cat_id": 66436,
        "meta_element_set_no": 999,
        "meta_rev_at_epoch": 506,
        "meta_bstar": 0.0023555816,
        "meta_mean_motion_dot": 0.00140816,
        "meta_mean_motion_ddot": 0,
        "tle_line1": "1 66436U 25259Q   25339.60286967  .00140816  00000+0  23556-2 0  9996",
        "tle_line2": "2 66436  43.0010  89.0132 0001941 265.0678  94.9961 15.50669165  5060"
      },
      "geometry": {
        "type": "Point",
        "coordinates": [
          -72.30562172415539,
          -20.61067595589233
        ]
      }
    },
    {
      "type": "Feature",
      "properties": {
        "norad_id": 66437,
        "name": "STARLINK-35474",
        "group": "last-30-days",
        "lat": -21.75600395759398,
        "lon": -70.75524363775985,
        "alt_km": 416.0658262091656,
        "timestamp": "2025-12-06T11:28:09.784843+00:00",
        "meta_object_name": "STARLINK-35474",
        "meta_object_id": "2025-259R",
        "meta_epoch": "2025-12-05T14:27:38.002752",
        "meta_mean_motion": 15.50645032,
        "meta_eccentricity": 0.00030401,
        "meta_inclination": 43.0005,
        "meta_ra_of_asc_node": 89.0104,
        "meta_arg_of_pericenter": 293.4897,
        "meta_mean_anomaly": 66.5644,
        "meta_ephemeris_type": 0,
        "meta_classification_type": "U",
        "meta_norad_cat_id": 66437,
        "meta_element_set_no": 999,
        "meta_rev_at_epoch": 506,
        "meta_bstar": 0.00244022,
        "meta_mean_motion_dot": 0.00145866,
        "meta_mean_motion_ddot": 0,
        "tle_line1": "1 66437U 25259R   25339.60252318  .00145866  00000+0  24402-2 0  9991",
        "tle_line2": "2 66437  43.0005  89.0104 0003040 293.4897  66.5644 15.50645032  5064"
      },
      "geometry": {
        "type": "Point",
        "coordinates": [
          -70.75524363775985,
          -21.75600395759398
        ]
      }
    }
  ]
}